{"type": "FeatureCollection", "features": [ {"type": "Feature", "properties": {"norad_id": 34963, "name": "COSMOS 2251 DEB", "group": "cosmos-2251-debris", "lat": 72.74613511780726, "lon": 130.3484627269783, "alt_km": 725.846989113973, "timestamp": "2025-12-26T21:25:53.405054+00:00", "meta": {"OBJECT_NAME": "COSMOS 2251 DEB", "OBJECT_ID": "1993-036AES", "EPOCH": "2025-12-24T11:04:35.037696", "MEAN_MOTION": 14.51189706, "ECCENTRICITY": 0.00420275, "INCLINATION": 74.171, "RA_OF_ASC_NODE": 20.8715, "ARG_OF_PERICENTER": 215.0245, "MEAN_ANOMALY": 144.8152, "EPHEMERIS_TYPE": 0, "CLASSIFICATION_TYPE": "U", "NORAD_CAT_ID": 34963, "ELEMENT_SET_NO": 999, "REV_AT_EPOCH": 86971, "BSTAR": 0.00126389, "MEAN_MOTION_DOT": 5.053e-05, "MEAN_MOTION_DDOT": 0}, "tle": {"line1": "1 34963U 93036AES 25358.46151664  .00005053  00000+0  12639-2 0  9997", "line2": "2 34963  74.1710  20.8715 0042027 215.0245 144.8152 14.51189706869712"}}, "geometry": {"type": "Point", "coordinates": [130.3484627269783, 72.74613511780726]}}, {"type": "Feature", "properties": {"norad_id": 34964, "name": "COSMOS 2251 DEB", "group": "cosmos-2251-debris", "lat": 59.02393197604262, "lon": -8.176374163963152, "alt_km": 949.1081718706464, "timestamp": "2025-12-26T21:25:53.405064+00:00", "meta": {"OBJECT_NAME": "COSMOS 2251 DEB", "OBJECT_ID": "1993-036AET", "EPOCH": "2025-12-18T07:25:04.519776", "MEAN_MOTION": 14.00628567, "ECCENTRICITY": 0.02123167, "INCLINATION": 73.9712, "RA_OF_ASC_NODE": 338.1457, "ARG_OF_PERICENTER": 195.4091, "MEAN_ANOMALY": 164.0515, "EPHEMERIS_TYPE": 0, "CLASSIFICATION_TYPE": "U", "NORAD_CAT_ID": 34964, "ELEMENT_SET_NO": 999, "REV_AT_EPOCH": 84556, "BSTAR": 0.00089791859, "MEAN_MOTION_DOT": 1.6e-05, "MEAN_MOTION_DDOT": 0}, "tle": {"line1": "1 34964U 93036AET 25352.30908009  .00001600  00000+0  89792-3 0  9997", "line2": "2 34964  73.9712 338.1457 0212316 195.4091 164.0515 14.00628567845561"}}, "geometry": {"type": "Point", "coordinates": [-8.176374163963152, 59.02393197604262]}}, {"type": "Feature", "properties": {"norad_id": 34965, "name": "COSMOS 2251 DEB", "group": "cosmos-2251-debris", "lat": 59.02775878493203, "lon": 130.42585859628343, "alt_km": 741.7420512910176, "timestamp": "2025-12-26T21:25:53.405074+00:00", "meta": {"OBJECT_NAME": "COSMOS 2251 DEB", "OBJECT_ID": "1993-036AEU", "EPOCH": "2025-12-23T13:35:23.542944", "MEAN_MOTION": 14.48733014, "ECCENTRICITY": 0.00264239, "INCLINATION": 74.0518, "RA_OF_ASC_NODE": 108.1991, "ARG_OF_PERICENTER": 234.0681, "MEAN_ANOMALY": 125.8027, "EPHEMERIS_TYPE": 0, "CLASSIFICATION_TYPE": "U", "NORAD_CAT_ID": 34965, "ELEMENT_SET_NO": 999, "REV_AT_EPOCH": 87270, "BSTAR": 0.00031518339, "MEAN_MOTION_DOT": 1.166e-05, "MEAN_MOTION_DDOT": 0}, "tle": {"line1": "1 34965U 93036AEU 25357.56624471  .00001166  00000+0  31518-3 0  9999", "line2": "2 34965  74.0518 108.1991 0026423 234.0681 125.8027 14.48733014872708"}}, "geometry": {"type": "Point", "coordinates": [130.42585859628343, 59.02775878493203]}}, {"type": "Feature", "properties": {"norad_id": 34967, "name": "COSMOS 2251 DEB", "group": "cosmos-2251-debris", "lat": 65.23988957587076, "lon": 8.96334593668983, "alt_km": 741.5208755807225, "timestamp": "2025-12-26T21:25:53.405084+00:00", "meta": {"OBJECT_NAME": "COSMOS 2251 DEB", "OBJECT_ID": "1993-036AEW", "EPOCH": "2025-12-24T22:23:05.722368", "MEAN_MOTION": 14.44316705, "ECCENTRICITY": 0.0038667, "INCLINATION": 73.9924, "RA_OF_ASC_NODE": 231.1127, "ARG_OF_PERICENTER": 14.6551, "MEAN_ANOMALY": 345.5717, "EPHEMERIS_TYPE": 0, "CLASSIFICATION_TYPE": "U", "NORAD_CAT_ID": 34967, "ELEMENT_SET_NO": 999, "REV_AT_EPOCH": 65133, "BSTAR": 0.00061268, "MEAN_MOTION_DOT": 2.1e-05, "MEAN_MOTION_DDOT": 0}, "tle": {"line1": "1 34967U 93036AEW 25358.93270512  .00002100  00000+0  61268-3 0  9990", "line2": "2 34967  73.9924 231.1127 0038667  14.6551 345.5717 14.44316705651339"}}, "geometry": {"type": "Point", "coordinates": [8.96334593668983, 65.23988957587076]}}, {"type": "Feature", "properties": {"norad_id": 34968, "name": "COSMOS 2251 DEB", "group": "cosmos-2251-debris", "lat": 13.810973289773461, "lon": -135.8743804517189, "alt_km": 646.5728644231413, "timestamp": "2025-12-26T21:25:53.405094+00:00", "meta": {"OBJECT_NAME": "COSMOS 2251 DEB", "OBJECT_ID": "1993-036AEX", "EPOCH": "2025-12-24T23:18:09.743904", "MEAN_MOTION": 14.59425432, "ECCENTRICITY": 0.00872503, "INCLINATION": 74.0378, "RA_OF_ASC_NODE": 223.7537, "ARG_OF_PERICENTER": 341.0741, "MEAN_ANOMALY": 18.7186, "EPHEMERIS_TYPE": 0, "CLASSIFICATION_TYPE": "U", "NORAD_CAT_ID": 34968, "ELEMENT_SET_NO": 999, "REV_AT_EPOCH": 88656, "BSTAR": 0.00013531421, "MEAN_MOTION_DOT": 6.43e-06, "MEAN_MOTION_DDOT": 0}, "tle": {"line1": "1 34968U 93036AEX 25358.97094611  .00000643  00000+0  13531-3 0  9999", "line2": "2 34968  74.0378 223.7537 0087250 341.0741  18.7186 14.59425432886565"}}, "geometry": {"type": "Point", "coordinates": [-135.8743804517189, 13.810973289773461]}}, {"type": "Feature", "properties": {"norad_id": 34969, "name": "COSMOS 2251 DEB", "group": "cosmos-2251-debris", "lat": 16.332566440391926, "lon": 172.46494806300296, "alt_km": 741.7838995435213, "timestamp": "2025-12-26T21:25:53.405104+00:00", "meta": {"OBJECT_NAME": "COSMOS 2251 DEB", "OBJECT_ID": "1993-036AEY", "EPOCH": "2025-12-21T18:18:22.827744", "MEAN_MOTION": 14.32268431, "ECCENTRICITY": 0.00731947, "INCLINATION": 74.0139, "RA_OF_ASC_NODE": 6.6546, "ARG_OF_PERICENTER": 137.5862, "MEAN_ANOMALY": 223.0979, "EPHEMERIS_TYPE": 0, "CLASSIFICATION_TYPE": "U", "NORAD_CAT_ID": 34969, "ELEMENT_SET_NO": 999, "REV_AT_EPOCH": 65266, "BSTAR": 0.0001981389, "MEAN_MOTION_DOT": 5.25e-06, "MEAN_MOTION_DDOT": 0}, "tle": {"line1": "1 34969U 93036AEY 25355.76276421  .00000525  00000+0  19814-3 0  9994", "line2": "2 34969  74.0139   6.6546 0073194 137.5862 223.0979 14.32268431652661"}}, "geometry": {"type": "Point", "coordinates": [172.46494806300296, 16.332566440391926]}}, {"type": "Feature", "properties": {"norad_id": 34971, "name": "COSMOS 2251 DEB", "group": "cosmos-2251-debris", "lat": -60.454711991047056, "lon": 108.5560625556348, "alt_km": 741.7481843564019, "timestamp": "2025-12-26T21:25:53.405115+00:00", "meta": {"OBJECT_NAME": "COSMOS 2251 DEB", "OBJECT_ID": "1993-036AFA", "EPOCH": "2025-12-26T11:13:29.440704", "MEAN_MOTION": 14.55653879, "ECCENTRICITY": 0.00691842, "INCLINATION": 73.9782, "RA_OF_ASC_NODE": 258.9038, "ARG_OF_PERICENTER": 120.9531, "MEAN_ANOMALY": 55.4903, "EPHEMERIS_TYPE": 0, "CLASSIFICATION_TYPE": "U", "NORAD_CAT_ID": 34971, "ELEMENT_SET_NO": 999, "REV_AT_EPOCH": 66372, "BSTAR": 0.00016507125, "MEAN_MOTION_DOT": 7.14e-06, "MEAN_MOTION_DDOT": 0}, "tle": {"line1": "1 34971U 93036AFA 25360.46770186  .00000714  00000+0  16507-3 0  9993", "line2": "2 34971  73.9782 258.9038 0069184 120.9531  55.4903 14.55653879663729"}}, "geometry": {"type": "Point", "coordinates": [108.5560625556348, -60.454711991047056]}}, {"type": "Feature", "properties": {"norad_id": 34972, "name": "COSMOS 2251 DEB", "group": "cosmos-2251-debris", "lat": -58.61766533262201, "lon": -5.881557422249124, "alt_km": 668.8830605078401, "timestamp": "2025-12-26T21:25:53.405152+00:00", "meta": {"OBJECT_NAME": "COSMOS 2251 DEB", "OBJECT_ID": "1993-036AFB", "EPOCH": "2025-12-26T12:37:34.370400", "MEAN_MOTION": 14.7310501, "ECCENTRICITY": 0.00324192, "INCLINATION": 73.9877, "RA_OF_ASC_NODE": 22.9204, "ARG_OF_PERICENTER": 179.2872, "MEAN_ANOMALY": 332.9317, "EPHEMERIS_TYPE": 0, "CLASSIFICATION_TYPE": "U", "NORAD_CAT_ID": 34972, "ELEMENT_SET_NO": 999, "REV_AT_EPOCH": 87853, "BSTAR": 0.001335454, "MEAN_MOTION_DOT": 8.649e-05, "MEAN_MOTION_DDOT": 0}, "tle": {"line1": "1 34972U 93036AFB 25360.52609225  .00008649  00000+0  13355-2 0  9998", "line2": "2 34972  73.9877  22.9204 0032419 179.2872 332.9317 14.73105010878533"}}, "geometry": {"type": "Point", "coordinates": [-5.881557422249124, -58.61766533262201]}}, {"type": "Feature", "properties": {"norad_id": 34976, "name": "COSMOS 2251 DEB", "group": "cosmos-2251-debris", "lat": -37.87571651018948, "lon": 111.39674670120064, "alt_km": 652.3779487774818, "timestamp": "2025-12-26T21:25:53.405163+00:00", "meta": {"OBJECT_NAME": "COSMOS 2251 DEB", "OBJECT_ID": "1993-036AFF", "EPOCH": "2025-12-24T05:42:41.204160", "MEAN_MOTION": 14.76809395, "ECCENTRICITY": 0.00477961, "INCLINATION": 74.058, "RA_OF_ASC_NODE": 283.7455, "ARG_OF_PERICENTER": 327.9934, "MEAN_ANOMALY": 182.3501, "EPHEMERIS_TYPE": 0, "CLASSIFICATION_TYPE": "U", "NORAD_CAT_ID": 34976, "ELEMENT_SET_NO": 999, "REV_AT_EPOCH": 88443, "BSTAR": 0.0017837373, "MEAN_MOTION_DOT": 0.00012745, "MEAN_MOTION_DDOT": 0}, "tle": {"line1": "1 34976U 93036AFF 25358.23797690  .00012745  00000+0  17837-2 0  9992", "line2": "2 34976  74.0580 283.7455 0047796 327.9934 182.3501 14.76809395884438"}}, "geometry": {"type": "Point", "coordinates": [111.39674670120064, -37.87571651018948]}}, {"type": "Feature", "properties": {"norad_id": 34979, "name": "COSMOS 2251 DEB", "group": "cosmos-2251-debris", "lat": 46.86192873193118, "lon": -102.80092406640027, "alt_km": 628.97565106417, "timestamp": "2025-12-26T21:25:53.405173+00:00", "meta": {"OBJECT_NAME": "COSMOS 2251 DEB", "OBJECT_ID": "1993-036AFJ", "EPOCH": "2025-12-26T01:44:12.448320", "MEAN_MOTION": 14.79574346, "ECCENTRICITY": 0.00491742, "INCLINATION": 74.0387, "RA_OF_ASC_NODE": 241.0288, "ARG_OF_PERICENTER": 316.3165, "MEAN_ANOMALY": 43.4123, "EPHEMERIS_TYPE": 0, "CLASSIFICATION_TYPE": "U", "NORAD_CAT_ID": 34979, "ELEMENT_SET_NO": 999, "REV_AT_EPOCH": 88417, "BSTAR": 0.0010039197, "MEAN_MOTION_DOT": 7.647e-05, "MEAN_MOTION_DDOT": 0}, "tle": {"line1": "1 34979U 93036AFJ 25360.07236630  .00007647  00000+0  10039-2 0  9994", "line2": "2 34979  74.0387 241.0288 0049174 316.3165  43.4123 14.79574346884173"}}, "geometry": {"type": "Point", "coordinates": [-102.80092406640027, 46.86192873193118]}}]}